COMMENT,ORIGINATOR,NORAD_CAT_ID,OBJECT_NAME,OBJECT_TYPE,CLASSIFICATION_TYPE,INTLDES,EPOCH,EPOCH_MICROSECONDS,MEAN_MOTION,ECCENTRICITY,INCLINATION,RA_OF_ASC_NODE,ARG_OF_PERICENTER,MEAN_ANOMALY,EPHEMERIS_TYPE,ELEMENT_SET_NO,REV_AT_EPOCH,BSTAR,MEAN_MOTION_DOT,MEAN_MOTION_DDOT,FILE,TLE_LINE0,TLE_LINE1,TLE_LINE2,OBJECT_ID,OBJECT_NUMBER,SEMIMAJOR_AXIS,PERIOD,APOGEE,PERIGEE,DECAYED
GENERATED VIA SPACETRACK.ORG API,18 SPCS,26998,TIMED,PAYLOAD,U,01055B,4/2/24 20:12,650944,14.90995541,0.0001024,74.0719,51.9192,226.8815,133.2282,0,999,21059,0.00022401,0.00002178,0,4260070,0 TIMED,1 26998U 01055B   24093.84187096  .00002178  00000-0  22401-3 0  9996,2 26998  74.0719  51.9192 0001024 226.8815 133.2282 14.90995541210595,2001-055B,26998,6972.967,96.58,595.546,594.118,0
GENERATED VIA SPACETRACK.ORG API,18 SPCS,26998,TIMED,PAYLOAD,U,01055B,4/3/24 7:28,343360,14.90997153,0.0001015,74.0719,50.9799,227.5276,132.5821,0,999,21080,0.0002098,0.00002037,0,4260764,0 TIMED,1 26998U 01055B   24094.31155490  .00002037  00000-0  20980-3 0  9996,2 26998  74.0719  50.9799 0001015 227.5276 132.5821 14.90997153210802,2001-055B,26998,6972.962,96.58,595.535,594.119,0
GENERATED VIA SPACETRACK.ORG API,18 SPCS,26998,TIMED,PAYLOAD,U,01055B,4/3/24 13:55,286016,14.90998038,0.0001011,74.0719,50.4432,227.7818,132.3279,0,999,21070,0.00020006,0.00001941,0,4261282,0 TIMED,1 26998U 01055B   24094.57994544  .00001941  00000-0  20006-3 0  9997,2 26998  74.0719  50.4432 0001011 227.7818 132.3279 14.90998038210708,2001-055B,26998,6972.959,96.58,595.529,594.119,0
GENERATED VIA SPACETRACK.ORG API,18 SPCS,26998,TIMED,PAYLOAD,U,01055B,4/3/24 21:58,444896,14.90999154,0.0000996,74.072,49.7723,227.2522,132.8577,0,999,21075,0.00018845,0.00001826,0,4261881,0 TIMED,1 26998U 01055B   24094.91543339  .00001826  00000-0  18845-3 0  9997,2 26998  74.0720  49.7723 0000996 227.2522 132.8577 14.90999154210753,2001-055B,26998,6972.956,96.58,595.515,594.126,0
GENERATED VIA SPACETRACK.ORG API,18 SPCS,26998,TIMED,PAYLOAD,U,01055B,4/4/24 7:37,814816,14.91000097,0.0000983,74.0721,48.9672,227.6264,132.4836,0,999,21095,0.00017012,0.00001645,0,4262620,0 TIMED,1 26998U 01055B   24095.31801869  .00001645  00000-0  17012-3 0  9991,2 26998  74.0721  48.9672 0000983 227.6264 132.4836 14.91000097210957,2001-055B,26998,6972.953,96.579,595.503,594.132,0
GENERATED VIA SPACETRACK.ORG API,18 SPCS,26998,TIMED,PAYLOAD,U,01055B,4/4/24 14:04,698720,14.91001242,0.000097,74.0721,48.4305,227.6904,132.4196,0,999,21085,0.00017234,0.00001667,0,4263133,0 TIMED,1 26998U 01055B   24095.58640855  .00001667  00000-0  17234-3 0  9996,2 26998  74.0721  48.4305 0000970 227.6904 132.4196 14.91001242210853,2001-055B,26998,6972.949,96.579,595.491,594.138,0
GENERATED VIA SPACETRACK.ORG API,18 SPCS,26998,TIMED,PAYLOAD,U,01055B,4/4/24 22:07,828224,14.91001829,0.0000961,74.0715,47.7599,225.6896,134.4208,0,999,21090,0.00018121,0.00001754,0,4263706,0 TIMED,1 26998U 01055B   24095.92189616  .00001754  00000-0  18121-3 0  9990,2 26998  74.0715  47.7599 0000961 225.6896 134.4208 14.91001829210904,2001-055B,26998,6972.947,96.579,595.483,594.142,0
GENERATED VIA SPACETRACK.ORG API,18 SPCS,26998,TIMED,PAYLOAD,U,01055B,4/5/24 14:13,931712,14.91004203,0.0000922,74.0716,46.4182,225.3793,134.7314,0,999,21100,0.00017398,0.00001683,0,4264927,0 TIMED,1 26998U 01055B   24096.59286958  .00001683  00000-0  17398-3 0  9997,2 26998  74.0716  46.4182 0000922 225.3793 134.7314 14.91004203211001,2001-055B,26998,6972.94,96.579,595.448,594.162,0
GENERATED VIA SPACETRACK.ORG API,18 SPCS,26998,TIMED,PAYLOAD,U,01055B,4/5/24 20:40,730944,14.9100525,0.0000916,74.0716,45.8816,225.0235,135.0873,0,999,21118,0.00017214,0.00001665,0,4265047,0 TIMED,1 26998U 01055B   24096.86125846  .00001665  00000-0  17214-3 0  9992,2 26998  74.0716  45.8816 0000916 225.0235 135.0873 14.91005250211185,2001-055B,26998,6972.937,96.579,595.44,594.163,0
GENERATED VIA SPACETRACK.ORG API,18 SPCS,26998,TIMED,PAYLOAD,U,01055B,4/5/24 22:16,935072,14.91005453,0.0000913,74.0716,45.7474,225.3498,134.761,0,999,21105,0.00017135,0.00001657,0,4265532,0 TIMED,1 26998U 01055B   24096.92835573  .00001657  00000-0  17135-3 0  9997,2 26998  74.0716  45.7474 0000913 225.3498 134.7610 14.91005453211051,2001-055B,26998,6972.936,96.579,595.438,594.164,0
GENERATED VIA SPACETRACK.ORG API,18 SPCS,26998,TIMED,PAYLOAD,U,01055B,4/6/24 14:23,896000,14.91008289,0.0000881,74.0717,44.4057,224.4999,135.6113,0,999,21115,0.00017481,0.00001691,0,4266712,0 TIMED,1 26998U 01055B   24097.59932750  .00001691  00000-0  17481-3 0  9998,2 26998  74.0717  44.4057 0000881 224.4999 135.6113 14.91008289211154,2001-055B,26998,6972.927,96.579,595.407,594.178,0
GENERATED VIA SPACETRACK.ORG API,18 SPCS,26998,TIMED,PAYLOAD,U,01055B,4/6/24 22:26,841472,14.91009332,0.0000871,74.0717,43.7348,224.0993,136.012,0,999,21120,0.00016961,0.0000164,0,4267273,0 TIMED,1 26998U 01055B   24097.93481298  .00001640  00000-0  16961-3 0  9998,2 26998  74.0717  43.7348 0000871 224.0993 136.0120 14.91009332211207,2001-055B,26998,6972.924,96.579,595.396,594.182,0
GENERATED VIA SPACETRACK.ORG API,18 SPCS,26998,TIMED,PAYLOAD,U,01055B,4/7/24 6:29,784352,14.91010978,0.0000853,74.0718,43.064,224.1802,135.9313,0,999,21125,0.00017889,0.00001732,0,4267861,0 TIMED,1 26998U 01055B   24098.27029843  .00001732  00000-0  17889-3 0  9992,2 26998  74.0718  43.0640 0000853 224.1802 135.9313 14.91010978211251,2001-055B,26998,6972.919,96.579,595.379,594.189,0
GENERATED VIA SPACETRACK.ORG API,18 SPCS,26998,TIMED,PAYLOAD,U,01055B,4/7/24 22:35,563840,14.91013381,0.0000832,74.0719,41.7223,223.4625,136.6492,0,999,21135,0.00017724,0.00001716,0,4268432,0 TIMED,1 26998U 01055B   24098.94126810  .00001716  00000-0  17724-3 0  9998,2 26998  74.0719  41.7223 0000832 223.4625 136.6492 14.91013381211354,2001-055B,26998,6972.911,96.579,595.357,594.196,0
GENERATED VIA SPACETRACK.ORG API,18 SPCS,26998,TIMED,PAYLOAD,U,01055B,4/8/24 3:25,67360,14.91014794,0.0000831,74.072,41.3198,223.9072,136.2044,0,999,21152,0.0001901,0.00001843,0,4268629,0 TIMED,1 26998U 01055B   24099.14255865  .00001843  00000-0  19010-3 0  9995,2 26998  74.0720  41.3198 0000831 223.9072 136.2044 14.91014794211520,2001-055B,26998,6972.907,96.579,595.351,594.193,0
GENERATED VIA SPACETRACK.ORG API,18 SPCS,26998,TIMED,PAYLOAD,U,01055B,4/8/24 6:38,410816,14.91015164,0.0000824,74.0721,41.0514,224.072,136.0397,0,999,21140,0.00018781,0.0000182,0,4269708,0 TIMED,1 26998U 01055B   24099.27675244  .00001820  00000-0  18781-3 0  9995,2 26998  74.0721  41.0514 0000824 224.0720 136.0397 14.91015164211402,2001-055B,26998,6972.906,96.578,595.345,594.196,0
GENERATED VIA SPACETRACK.ORG API,18 SPCS,26998,TIMED,PAYLOAD,U,01055B,4/8/24 22:44,55520,14.91017433,0.0000805,74.0721,39.7097,224.1795,135.9323,0,999,21150,0.00018536,0.00001796,0,4270195,0 TIMED,1 26998U 01055B   24099.94772055  .00001796  00000-0  18536-3 0  9997,2 26998  74.0721  39.7097 0000805 224.1795 135.9323 14.91017433211503,2001-055B,26998,6972.899,96.578,595.325,594.202,0
GENERATED VIA SPACETRACK.ORG API,18 SPCS,26998,TIMED,PAYLOAD,U,01055B,4/9/24 3:34,549536,14.91017814,0.0000791,74.0722,39.3072,224.2241,135.8878,0,999,21167,0.00018081,0.00001751,0,4270358,0 TIMED,1 26998U 01055B   24100.14901099  .00001751  00000-0  18081-3 0  9990,2 26998  74.0722  39.3072 0000791 224.2241 135.8878 14.91017814211679,2001-055B,26998,6972.898,96.578,595.314,594.211,0
GENERATED VIA SPACETRACK.ORG API,18 SPCS,26998,TIMED,PAYLOAD,U,01055B,4/9/24 6:47,859296,14.91018338,0.0000779,74.0722,39.0389,224.2049,135.9072,0,999,21155,0.00018118,0.00001755,0,4271457,0 TIMED,1 26998U 01055B   24100.28320439  .00001755  00000-0  18118-3 0  9993,2 26998  74.0722  39.0389 0000779 224.2049 135.9072 14.91018338211555,2001-055B,26998,6972.896,96.578,595.304,594.218,0
GENERATED VIA SPACETRACK.ORG API,18 SPCS,26998,TIMED,PAYLOAD,U,01055B,4/9/24 22:54,309600,14.91021278,0.0000753,74.0723,37.6972,223.8695,136.2428,0,999,21165,0.00018734,0.00001816,0,4271964,0 TIMED,1 26998U 01055B   24100.95417025  .00001816  00000-0  18734-3 0  9997,2 26998  74.0723  37.6972 0000753 223.8695 136.2428 14.91021278211659,2001-055B,26998,6972.887,96.578,595.277,594.227,0
GENERATED VIA SPACETRACK.ORG API,18 SPCS,26998,TIMED,PAYLOAD,U,01055B,4/10/24 3:43,734496,14.9102229,0.0000743,74.0723,37.2947,223.9849,136.1274,0,999,21182,0.00019262,0.00001868,0,4272019,0 TIMED,1 26998U 01055B   24101.15545989  .00001868  00000-0  19262-3 0  9995,2 26998  74.0723  37.2947 0000743 223.9849 136.1274 14.91022290211820,2001-055B,26998,6972.884,96.578,595.267,594.231,0
GENERATED VIA SPACETRACK.ORG API,18 SPCS,26998,TIMED,PAYLOAD,U,01055B,4/10/24 13:23,591200,14.91022995,0.0000719,74.0724,36.4897,223.7929,136.3196,0,999,21174,0.00017893,0.00001733,0,4273273,0 TIMED,1 26998U 01055B   24101.55803925  .00001733  00000-0  17893-3 0  9995,2 26998  74.0724  36.4897 0000719 223.7929 136.3196 14.91022995211744,2001-055B,26998,6972.881,96.578,595.248,594.245,0
GENERATED VIA SPACETRACK.ORG API,18 SPCS,26998,TIMED,PAYLOAD,U,01055B,4/10/24 23:03,362368,14.91024835,0.0000715,74.0724,35.6848,224.3133,135.7992,0,999,21180,0.00018374,0.0000178,0,4273834,0 TIMED,1 26998U 01055B   24101.96061762  .00001780  00000-0  18374-3 0  9992,2 26998  74.0724  35.6848 0000715 224.3133 135.7992 14.91024835211800,2001-055B,26998,6972.876,96.578,595.239,594.242,0
GENERATED VIA SPACETRACK.ORG API,18 SPCS,26998,TIMED,PAYLOAD,U,01055B,4/11/24 3:53,744064,14.91025628,0.0000706,74.0725,35.2822,224.4171,135.6955,0,999,21197,0.00018463,0.00001789,0,4273942,0 TIMED,1 26998U 01055B   24102.16190676  .00001789  00000-0  18463-3 0  9990,2 26998  74.0725  35.2822 0000706 224.4171 135.6955 14.91025628211979,2001-055B,26998,6972.873,96.578,595.231,594.246,0
